{
  "norad_id": 45727,
  "name": "M2 PATHFINDER",
  "history": [
    {
      "epoch": "2026-04-15T19:06:17.080128Z",
      "apogee_km": 561.429343226333,
      "perigee_km": 545.2208123036862,
      "latitude_deg": 1.9356532788659693e-05,
      "longitude_deg": 165.80577064829325,
      "height_km": 548.4357164511272,
      "semi_major_axis_km": 6931.462077765009,
      "eccentricity": 0.0011692,
      "inclination_deg": 97.8174,
      "raan_deg": 296.3299,
      "arg_perigee_deg": 11.5222,
      "mean_anomaly_deg": 348.6269,
      "mean_motion_rev_day": 15.04407482
    },
    {
      "epoch": "2026-04-16T19:02:57.470208Z",
      "apogee_km": 561.371430130026,
      "perigee_km": 545.2544227610542,
      "latitude_deg": -6.3407297258332e-05,
      "longitude_deg": 166.6631240168353,
      "height_km": 548.3951544862671,
      "semi_major_axis_km": 6931.44992644554,
      "eccentricity": 0.0011626,
      "inclination_deg": 97.8174,
      "raan_deg": 297.3389,
      "arg_perigee_deg": 8.4773,
      "mean_anomaly_deg": 351.6646,
      "mean_motion_rev_day": 15.04411438
    },
    {
      "epoch": "2026-04-17T06:13:24.297600Z",
      "apogee_km": 561.3412635146215,
      "perigee_km": 545.2752824031468,
      "latitude_deg": 2.3794171268036926e-05,
      "longitude_deg": -0.9366727489289141,
      "height_km": 548.3895506118247,
      "semi_major_axis_km": 6931.445272958884,
      "eccentricity": 0.00115892,
      "inclination_deg": 97.8175,
      "raan_deg": 297.8098,
      "arg_perigee_deg": 7.0717,
      "mean_anomaly_deg": 353.067,
      "mean_motion_rev_day": 15.04412953
    },
    {
      "epoch": "2026-04-18T18:56:17.735424Z",
      "apogee_km": 561.2350211717139,
      "perigee_km": 545.3509562096306,
      "latitude_deg": -5.27009348349144e-05,
      "longitude_deg": 168.3798558881696,
      "height_km": 548.41243952897,
      "semi_major_axis_km": 6931.429988690672,
      "eccentricity": 0.0011458,
      "inclination_deg": 97.8174,
      "raan_deg": 299.3568,
      "arg_perigee_deg": 2.3638,
      "mean_anomaly_deg": 357.7639,
      "mean_motion_rev_day": 15.04417929
    },
    {
      "epoch": "2026-04-19T18:52:57.569088Z",
      "apogee_km": 561.1624800777372,
      "perigee_km": 545.4045886349322,
      "latitude_deg": -4.60255980436982e-05,
      "longitude_deg": 169.23951889206867,
      "height_km": 548.4610258423146,
      "semi_major_axis_km": 6931.420534356334,
      "eccentricity": 0.0011367,
      "inclination_deg": 97.8174,
      "raan_deg": 300.3658,
      "arg_perigee_deg": 359.2086,
      "mean_anomaly_deg": 0.9119,
      "mean_motion_rev_day": 15.04421007
    },
    {
      "epoch": "2026-04-20T06:03:24.201216Z",
      "apogee_km": 561.1322703163842,
      "perigee_km": 545.4326052897613,
      "latitude_deg": -3.313172618960996e-05,
      "longitude_deg": 1.6404465835214646,
      "height_km": 548.4950681044057,
      "semi_major_axis_km": 6931.4194378030725,
      "eccentricity": 0.0011325,
      "inclination_deg": 97.8174,
      "raan_deg": 300.8366,
      "arg_perigee_deg": 357.6966,
      "mean_anomaly_deg": 2.4205,
      "mean_motion_rev_day": 15.04421364
    },
    {
      "epoch": "2026-04-21T18:46:16.751712Z",
      "apogee_km": 561.0247812060779,
      "perigee_km": 545.5095261484867,
      "latitude_deg": 3.202296232770303e-05,
      "longitude_deg": 170.9606586504721,
      "height_km": 548.6314362683136,
      "semi_major_axis_km": 6931.404153677282,
      "eccentricity": 0.0011192,
      "inclination_deg": 97.8172,
      "raan_deg": 302.3836,
      "arg_perigee_deg": 352.6107,
      "mean_anomaly_deg": 7.4952,
      "mean_motion_rev_day": 15.0442634
    },
    {
      "epoch": "2026-04-22T12:19:49.614816Z",
      "apogee_km": 560.9732960363181,
      "perigee_km": 545.5495482673459,
      "latitude_deg": -3.795816687325938e-05,
      "longitude_deg": -92.40749100256396,
      "height_km": 548.7226115056517,
      "semi_major_axis_km": 6931.398422151832,
      "eccentricity": 0.0011126,
      "inclination_deg": 97.8171,
      "raan_deg": 303.1235,
      "arg_perigee_deg": 350.0949,
      "mean_anomaly_deg": 10.0055,
      "mean_motion_rev_day": 15.04428206
    },
    {
      "epoch": "2026-04-23T07:29:08.966976Z",
      "apogee_km": 560.9193716251148,
      "perigee_km": 545.5864440100313,
      "latitude_deg": 2.7196206116510322e-05,
      "longitude_deg": -19.717718956311476,
      "height_km": 548.831924347864,
      "semi_major_axis_km": 6931.389907817573,
      "eccentricity": 0.00110605,
      "inclination_deg": 97.8171,
      "raan_deg": 303.9306,
      "arg_perigee_deg": 347.3279,
      "mean_anomaly_deg": 12.7667,
      "mean_motion_rev_day": 15.04430978
    }
  ]
}